{
  "type": "FeatureCollection",
  "features": [
    {
      "type": "Feature",
      "properties": {
        "norad_id": 43719,
        "name": "HYSIS",
        "group": "resource",
        "lat": 66.10432845747481,
        "lon": -114.85725981306624,
        "alt_km": 626.6100622910053,
        "timestamp": "2025-12-09T14:52:25.823644+00:00",
        "meta_object_name": "HYSIS",
        "meta_object_id": "2018-096A",
        "meta_epoch": "2025-12-09T07:52:13.260864",
        "meta_mean_motion": 14.78630328,
        "meta_eccentricity": 0.00014889,
        "meta_inclination": 98.0094,
        "meta_ra_of_asc_node": 46.3222,
        "meta_arg_of_pericenter": 58.0226,
        "meta_mean_anomaly": 302.113,
        "meta_ephemeris_type": 0,
        "meta_classification_type": "U",
        "meta_norad_cat_id": 43719,
        "meta_element_set_no": 999,
        "meta_rev_at_epoch": 37936,
        "meta_bstar": 0.00031088894,
        "meta_mean_motion_dot": 2.225e-05,
        "meta_mean_motion_ddot": 0,
        "tle_line1": "1 43719U 18096A   25343.32793126  .00002225  00000+0  31089-3 0  9992",
        "tle_line2": "2 43719  98.0094  46.3222 0001488  58.0226 302.1130 14.78630328379369"
      },
      "geometry": {
        "type": "Point",
        "coordinates": [
          -114.85725981306624,
          66.10432845747481
        ]
      }
    },
    {
      "type": "Feature",
      "properties": {
        "norad_id": 43783,
        "name": "KAZSTSAT",
        "group": "resource",
        "lat": 62.33937424322019,
        "lon": -146.59283853473093,
        "alt_km": 565.7960870001916,
        "timestamp": "2025-12-09T14:52:25.823654+00:00",
        "meta_object_name": "KAZSTSAT",
        "meta_object_id": "2018-099AB",
        "meta_epoch": "2025-12-09T01:32:30.411168",
        "meta_mean_motion": 14.99334862,
        "meta_eccentricity": 0.00061035,
        "meta_inclination": 97.4556,
        "meta_ra_of_asc_node": 18.407,
        "meta_arg_of_pericenter": 345.3373,
        "meta_mean_anomaly": 14.7673,
        "meta_ephemeris_type": 0,
        "meta_classification_type": "U",
        "meta_norad_cat_id": 43783,
        "meta_element_set_no": 999,
        "meta_rev_at_epoch": 38281,
        "meta_bstar": 0.00018723562,
        "meta_mean_motion_dot": 2.233e-05,
        "meta_mean_motion_ddot": 0,
        "tle_line1": "1 43783U 18099AB  25343.06424087  .00002233  00000+0  18724-3 0  9994",
        "tle_line2": "2 43783  97.4556  18.4070 0006103 345.3373  14.7673 14.99334862382810"
      },
      "geometry": {
        "type": "Point",
        "coordinates": [
          -146.59283853473093,
          62.33937424322019
        ]
      }
    },
    {
      "type": "Feature",
      "properties": {
        "norad_id": 43831,
        "name": "SAUDISAT 5A",
        "group": "resource",
        "lat": -54.10421395569583,
        "lon": -146.381496053054,
        "alt_km": 503.0168066778624,
        "timestamp": "2025-12-09T14:52:25.823664+00:00",
        "meta_object_name": "SAUDISAT 5A",
        "meta_object_id": "2018-102A",
        "meta_epoch": "2025-12-09T07:33:08.587872",
        "meta_mean_motion": 15.25590518,
        "meta_eccentricity": 0.0011831,
        "meta_inclination": 97.3352,
        "meta_ra_of_asc_node": 43.5716,
        "meta_arg_of_pericenter": 86.8194,
        "meta_mean_anomaly": 273.4398,
        "meta_ephemeris_type": 0,
        "meta_classification_type": "U",
        "meta_norad_cat_id": 43831,
        "meta_element_set_no": 999,
        "meta_rev_at_epoch": 38670,
        "meta_bstar": 0.00035943308,
        "meta_mean_motion_dot": 9.078e-05,
        "meta_mean_motion_ddot": 0,
        "tle_line1": "1 43831U 18102A   25343.31468273  .00009078  00000+0  35943-3 0  9992",
        "tle_line2": "2 43831  97.3352  43.5716 0011831  86.8194 273.4398 15.25590518386707"
      },
      "geometry": {
        "type": "Point",
        "coordinates": [
          -146.381496053054,
          -54.10421395569583
        ]
      }
    },
    {
      "type": "Feature",
      "properties": {
        "norad_id": 43833,
        "name": "SAUDISAT 5B",
        "group": "resource",
        "lat": -75.2446836047738,
        "lon": 75.92736903553273,
        "alt_km": 503.5957670821508,
        "timestamp": "2025-12-09T14:52:25.823675+00:00",
        "meta_object_name": "SAUDISAT 5B",
        "meta_object_id": "2018-102C",
        "meta_epoch": "2025-12-09T07:20:34.974240",
        "meta_mean_motion": 15.25944506,
        "meta_eccentricity": 0.001253,
        "meta_inclination": 97.3447,
        "meta_ra_of_asc_node": 46.2956,
        "meta_arg_of_pericenter": 89.1169,
        "meta_mean_anomaly": 271.1505,
        "meta_ephemeris_type": 0,
        "meta_classification_type": "U",
        "meta_norad_cat_id": 43833,
        "meta_element_set_no": 999,
        "meta_rev_at_epoch": 38681,
        "meta_bstar": 0.00032134705,
        "meta_mean_motion_dot": 8.197e-05,
        "meta_mean_motion_ddot": 0,
        "tle_line1": "1 43833U 18102C   25343.30596035  .00008197  00000+0  32135-3 0  9992",
        "tle_line2": "2 43833  97.3447  46.2956 0012530  89.1169 271.1505 15.25944506386812"
      },
      "geometry": {
        "type": "Point",
        "coordinates": [
          75.92736903553273,
          -75.2446836047738
        ]
      }
    },
    {
      "type": "Feature",
      "properties": {
        "norad_id": 44622,
        "name": "GAOFEN-10R",
        "group": "resource",
        "lat": -9.689411853121397,
        "lon": -67.50539674549593,
        "alt_km": 621.9647392827783,
        "timestamp": "2025-12-09T14:52:25.823685+00:00",
        "meta_object_name": "GAOFEN-10R",
        "meta_object_id": "2019-066A",
        "meta_epoch": "2025-12-09T06:49:11.886240",
        "meta_mean_motion": 14.82773887,
        "meta_eccentricity": 0.00080338,
        "meta_inclination": 98.0276,
        "meta_ra_of_asc_node": 290.777,
        "meta_arg_of_pericenter": 51.5696,
        "meta_mean_anomaly": 308.6237,
        "meta_ephemeris_type": 0,
        "meta_classification_type": "U",
        "meta_norad_cat_id": 44622,
        "meta_element_set_no": 999,
        "meta_rev_at_epoch": 33423,
        "meta_bstar": 0.00036087924,
        "meta_mean_motion_dot": 2.864e-05,
        "meta_mean_motion_ddot": 0,
        "tle_line1": "1 44622U 19066A   25343.28416535  .00002864  00000+0  36088-3 0  9998",
        "tle_line2": "2 44622  98.0276 290.7770 0008033  51.5696 308.6237 14.82773887334239"
      },
      "geometry": {
        "type": "Point",
        "coordinates": [
          -67.50539674549593,
          -9.689411853121397
        ]
      }
    },
    {
      "type": "Feature",
      "properties": {
        "norad_id": 44804,
        "name": "CARTOSAT-3",
        "group": "resource",
        "lat": 73.56721397191484,
        "lon": -110.38634283779011,
        "alt_km": 491.30935671652605,
        "timestamp": "2025-12-09T14:52:25.823695+00:00",
        "meta_object_name": "CARTOSAT-3",
        "meta_object_id": "2019-081A",
        "meta_epoch": "2025-12-09T06:30:44.587296",
        "meta_mean_motion": 15.19322694,
        "meta_eccentricity": 0.00139927,
        "meta_inclination": 97.4584,
        "meta_ra_of_asc_node": 42.8988,
        "meta_arg_of_pericenter": 97.8036,
        "meta_mean_anomaly": 262.4788,
        "meta_ephemeris_type": 0,
        "meta_classification_type": "U",
        "meta_norad_cat_id": 44804,
        "meta_element_set_no": 999,
        "meta_rev_at_epoch": 33463,
        "meta_bstar": 0.00021638242,
        "meta_mean_motion_dot": 4.512e-05,
        "meta_mean_motion_ddot": 0,
        "tle_line1": "1 44804U 19081A   25343.27134939  .00004512  00000+0  21638-3 0  9998",
        "tle_line2": "2 44804  97.4584  42.8988 0013992  97.8036 262.4788 15.19322694334633"
      },
      "geometry": {
        "type": "Point",
        "coordinates": [
          -110.38634283779011,
          73.56721397191484
        ]
      }
    },
    {
      "type": "Feature",
      "properties": {
        "norad_id": 44819,
        "name": "GAOFEN-12 01",
        "group": "resource",
        "lat": -76.23798921552685,
        "lon": 24.07958791381281,
        "alt_km": 633.8520976336858,
        "timestamp": "2025-12-09T14:52:25.823707+00:00",
        "meta_object_name": "GAOFEN-12 01",
        "meta_object_id": "2019-082A",
        "meta_epoch": "2025-12-09T07:07:08.500224",
        "meta_mean_motion": 14.80650613,
        "meta_eccentricity": 0.00011981,
        "meta_inclination": 97.8127,
        "meta_ra_of_asc_node": 349.668,
        "meta_arg_of_pericenter": 255.9896,
        "meta_mean_anomaly": 104.1183,
        "meta_ephemeris_type": 0,
        "meta_classification_type": "U",
        "meta_norad_cat_id": 44819,
        "meta_element_set_no": 999,
        "meta_rev_at_epoch": 32599,
        "meta_bstar": 0.00010845894,
        "meta_mean_motion_dot": 7.82e-06,
        "meta_mean_motion_ddot": 0,
        "tle_line1": "1 44819U 19082A   25343.29662616  .00000782  00000+0  10846-3 0  9999",
        "tle_line2": "2 44819  97.8127 349.6680 0001198 255.9896 104.1183 14.80650613325991"
      },
      "geometry": {
        "type": "Point",
        "coordinates": [
          24.07958791381281,
          -76.23798921552685
        ]
      }
    }
  ]
}